{
    "links": {
        "self": "http://www.neowsapp.com/rest/v1/neo/3409650?api_key=iIulBulltgU6a56xZRHN4H3l9WmuAYTsLGpBGhQ2"
    },
    "id": "3409650",
    "neo_reference_id": "3409650",
    "name": "(2008 HE2)",
    "designation": "2008 HE2",
    "nasa_jpl_url": "http://ssd.jpl.nasa.gov/sbdb.cgi?sstr=3409650",
    "absolute_magnitude_h": 23.6,
    "estimated_diameter": {
        "kilometers": {
            "estimated_diameter_min": 0.0506471459,
            "estimated_diameter_max": 0.1132504611
        },
        "meters": {
            "estimated_diameter_min": 50.6471458835,
            "estimated_diameter_max": 113.2504610618
        },
        "miles": {
            "estimated_diameter_min": 0.0314706677,
            "estimated_diameter_max": 0.0703705522
        },
        "feet": {
            "estimated_diameter_min": 166.1651821003,
            "estimated_diameter_max": 371.5566426699
        }
    },
    "is_potentially_hazardous_asteroid": false,
    "close_approach_data": [
        {
            "close_approach_date": "2008-05-03",
            "close_approach_date_full": "2008-May-03 17:59",
            "epoch_date_close_approach": 1209837540000,
            "relative_velocity": {
                "kilometers_per_second": "7.1936934319",
                "kilometers_per_hour": "25897.2963549575",
                "miles_per_hour": "16091.5728378901"
            },
            "miss_distance": {
                "astronomical": "0.0884403276",
                "lunar": "34.4032874364",
                "kilometers": "13230484.631062212",
                "miles": "8221041.9349620456"
            },
            "orbiting_body": "Earth"
        }
    ],
    "orbital_data": {
        "orbit_id": "10",
        "orbit_determination_date": "2017-04-06 09:03:37",
        "first_observation_date": "2008-04-27",
        "last_observation_date": "2008-05-30",
        "data_arc_in_days": 33,
        "observations_used": 35,
        "orbit_uncertainty": "7",
        "minimum_orbit_intersection": ".0916398",
        "jupiter_tisserand_invariant": "3.662",
        "epoch_osculation": "2459000.5",
        "eccentricity": ".457971954387542",
        "semi_major_axis": "2.02685668189282",
        "inclination": "9.470682498980704",
        "ascending_node_longitude": "38.80025078802061",
        "orbital_period": "1053.98150096691",
        "perihelion_distance": "1.098613166022916",
        "perihelion_argument": "187.3021366955377",
        "aphelion_distance": "2.955100197762722",
        "perihelion_time": "2458808.701955964855",
        "mean_anomaly": "65.51091816062147",
        "mean_motion": ".3415619720742161",
        "equinox": "J2000",
        "orbit_class": {
            "orbit_class_type": "AMO",
            "orbit_class_description": "Near-Earth asteroid orbits similar to that of 1221 Amor",
            "orbit_class_range": "1.017 AU < q (perihelion) < 1.3 AU"
        }
    },
    "is_sentry_object": false
}